[{"OBJECT_NAME":"TIANQI-6","OBJECT_ID":"2020-076D","EPOCH":"2026-03-09T22:50:24.728640","MEAN_MOTION":15.06417552,"ECCENTRICITY":0.00106023,"INCLINATION":34.9994,"RA_OF_ASC_NODE":297.1791,"ARG_OF_PERICENTER":9.4595,"MEAN_ANOMALY":350.6312,"EPHEMERIS_TYPE":0,"CLASSIFICATION_TYPE":"U","NORAD_CAT_ID":46810,"ELEMENT_SET_NO":999,"REV_AT_EPOCH":29360,"BSTAR":0.00037023286,"MEAN_MOTION_DOT":5.552e-5,"MEAN_MOTION_DDOT":0},{"OBJECT_NAME":"STARLINK-3931","OBJECT_ID":"2022-051R","EPOCH":"2026-03-09T11:02:11.529888","MEAN_MOTION":15.0876517,"ECCENTRICITY":0.00019383,"INCLINATION":53.217,"RA_OF_ASC_NODE":130.1527,"ARG_OF_PERICENTER":100.2735,"MEAN_ANOMALY":259.8475,"EPHEMERIS_TYPE":0,"CLASSIFICATION_TYPE":"U","NORAD_CAT_ID":52548,"ELEMENT_SET_NO":999,"REV_AT_EPOCH":21141,"BSTAR":0.00086497557,"MEAN_MOTION_DOT":0.00013477,"MEAN_MOTION_DDOT":0}]
